AMOS-17                 
1 44479U 19050A   26095.22267174  .00000110  00000+0  00000+0 0  9996
2 44479   0.0200 279.4400 0001529 107.6259 263.6054  1.00272863 24455
