[{"OBJECT_NAME":"AMOS-17","OBJECT_ID":"2019-050A","EPOCH":"2026-04-05T05:20:38.838336","MEAN_MOTION":1.00272863,"ECCENTRICITY":0.00015294,"INCLINATION":0.02,"RA_OF_ASC_NODE":279.44,"ARG_OF_PERICENTER":107.6259,"MEAN_ANOMALY":263.6054,"EPHEMERIS_TYPE":0,"CLASSIFICATION_TYPE":"U","NORAD_CAT_ID":44479,"ELEMENT_SET_NO":999,"REV_AT_EPOCH":2445,"BSTAR":0,"MEAN_MOTION_DOT":1.1e-6,"MEAN_MOTION_DDOT":0}]
